STARLINK-36830          
1 68110U 26044K   26169.77878784  .00025118  00000+0  77760-3 0  9998
2 68110  97.2833 130.0351 0001729  94.8863 265.2577 15.33451980 17078
STARLINK-36791          
1 68111U 26044L   26169.77334639  .00024290  00000+0  75175-3 0  9993
2 68111  97.2846 130.0429 0001346  76.4272 283.7120 15.33467292 17076
STARLINK-36893          
1 68112U 26044M   26169.31384478  .00016868  00000+0  52372-3 0  9996
2 68112  97.2833 129.5973 0001381  93.2518 266.8882 15.33441051 17004
STARLINK-36937          
1 68113U 26044N   26169.63468804  .00019192  00000+0  59516-3 0  9998
2 68113  97.2837 129.9271 0001609  89.8861 270.2566 15.33451015 17053
STARLINK-36229          
1 68114U 26044P   26168.85433561  .00017232  00000+0  53463-3 0  9992
2 68114  97.2837 129.1522 0001776  97.1714 262.9731 15.33458645 16933
STARLINK-36392          
1 68115U 26044Q   26169.63196226  .00012342  00000+0  38393-3 0  9996
2 68115  97.2837 129.9289 0001689  97.6595 262.4840 15.33449159 17057
STARLINK-36805          
1 68116U 26044R   26169.82501022  .00013828  00000+0  42979-3 0  9997
2 68116  97.2829 130.1270 0001877  93.7126 266.4332 15.33448952 17082
STARLINK-36844          
1 68117U 26044S   26168.84346288  .00019348  00000+0  59994-3 0  9998
2 68117  97.2835 129.1662 0002162 100.9817 259.1669 15.33452456 16938
STARLINK-36789          
1 68118U 26044T   26169.62379972  .00000605  00000+0  21082-4 0  9996
2 68118  97.2836 129.9415 0001591 101.2580 258.8841 15.33432893 17055
STARLINK-36850          
1 68119U 26044U   26169.36006394  .00017835  00000+0  55323-3 0  9990
2 68119  97.2849 129.6877 0001360  46.3885 313.7470 15.33458673 17019
STARLINK-36868          
1 68120U 26044V   26169.61836985  .00014170  00000+0  44034-3 0  9993
2 68120  97.2833 129.9495 0002383  94.3891 265.7624 15.33449761 17058
STARLINK-36855          
1 68121U 26044W   26169.81141772  .00022663  00000+0  70217-3 0  9997
2 68121  97.2834 130.1468 0001927  96.8067 263.3395 15.33445015 17089
STARLINK-36366          
1 68122U 26044X   26169.87395302  .00017776  00000+0  55148-3 0  9999
2 68122  97.2836 130.2140 0001964  92.9151 267.2316 15.33452476 17098
STARLINK-36922          
1 68123U 26044Y   26169.80325742  .00020431  00000+0  63330-3 0  9998
2 68123  97.2874 130.1577 0001851 104.3936 255.7512 15.33452509 17084
STARLINK-36938          
1 68124U 26044Z   26169.80011520  .00015209  00000+0  47235-3 0  9998
2 68124  97.2839 133.0571 0002297  97.7786 262.3718 15.33451834 17278
STARLINK-36839          
1 68125U 26044AA  26169.80597936  .00017793  00000+0  55198-3 0  9996
2 68125  97.2829 130.1551 0002432  81.3120 278.8398 15.33454041 17084
ECHOSTAR 25             
1 68126U 26045A   26169.58794234  .00000000  00000+0  00000+0 0  9994
2 68126   0.0193  12.6365 0001833  74.5333 281.3215  1.00268393  1006
HULIANWANG DIGUI-155    
1 68129U 26047A   26169.65764066 -.00000077  00000+0  10234-3 0  9996
2 68129  50.0044  51.1113 0000576 101.8306 258.2630 13.29332343 13261
HULIANWANG DIGUI-156    
1 68130U 26047B   26169.72445453 -.00000077  00000+0  10149-3 0  9997
2 68130  50.0045  50.7997 0000565 101.9451 258.1485 13.29332524 13267
HULIANWANG DIGUI-157    
1 68131U 26047C   26169.71613044 -.00000077  00000+0  10048-3 0  9998
2 68131  50.0015  50.7330 0000572 101.8032 258.2905 13.29331664 13271
HULIANWANG DIGUI-158    
1 68132U 26047D   26169.70776495 -.00000078  00000+0  98769-4 0  9996
2 68132  50.0064  50.7289 0000651 104.0268 256.0676 13.29332493 13264
HULIANWANG DIGUI-159    
1 68133U 26047E   26169.69940186 -.00000079  00000+0  96836-4 0  9999
2 68133  50.0030  50.6593 0000783  96.3550 263.7411 13.29332783 13273
HULIANWANG DIGUI-160    
1 68134U 26047F   26169.68266987 -.00000080  00000+0  94570-4 0  9994
2 68134  50.0089  50.6217 0000823  85.9945 274.1021 13.29333920 13264
HULIANWANG DIGUI-161    
1 68135U 26047G   26169.69104875 -.00000081  00000+0  91915-4 0  9994
2 68135  50.0108  50.6819 0000608  96.5446 263.5495 13.29333012 13270
HULIANWANG DIGUI-162    
1 68136U 26047H   26169.67444583 -.00000083  00000+0  88442-4 0  9999
2 68136  50.0078  50.5713 0000540 102.1796 257.9136 13.29329309 13268
HULIANWANG DIGUI-163    
1 68137U 26047J   26169.74118332 -.00000083  00000+0  88673-4 0  9994
2 68137  50.0081  50.2602 0000549 107.4593 252.6340 13.29332575 13289
SHIYAN-30 03            
1 68139U 26048A   26169.56555987  .00001466  00000+0  14531-3 0  9994
2 68139  34.9998 259.6302 0004893 350.7735   9.2880 14.91799971 14573
SHIYAN-30 04            
1 68140U 26048B   26169.56645313  .00001406  00000+0  13932-3 0  9997
2 68140  34.9914 259.5824 0003142   2.0738 357.9979 14.91827190 14574
STARLINK-36604          
1 68142U 26049A   26169.50321764  .00016267  00000+0  50507-3 0  9995
2 68142  97.2847 190.7617 0000826 103.8169 256.3166 15.33448564 15092
STARLINK-36995          
1 68143U 26049B   26169.81317558  .00005920  00000+0  18560-3 0  9993
2 68143  97.2842 191.1035 0001891  98.4284 261.7173 15.33436758 15143
