OBJECT_NAME,OBJECT_ID,EPOCH,MEAN_MOTION,ECCENTRICITY,INCLINATION,RA_OF_ASC_NODE,ARG_OF_PERICENTER,MEAN_ANOMALY,EPHEMERIS_TYPE,CLASSIFICATION_TYPE,NORAD_CAT_ID,ELEMENT_SET_NO,REV_AT_EPOCH,BSTAR,MEAN_MOTION_DOT,MEAN_MOTION_DDOT
STARLINK-36830,2026-044K,2026-06-18T18:41:27.269376,15.33451980,.0001729,97.2833,130.0351,94.8863,265.2577,0,U,68110,999,1707,.7776E-3,.25118E-3,0
STARLINK-36791,2026-044L,2026-06-18T18:33:37.128096,15.33467292,.0001346,97.2846,130.0429,76.4272,283.7120,0,U,68111,999,1707,.75175E-3,.2429E-3,0
STARLINK-36893,2026-044M,2026-06-18T07:31:56.188992,15.33441051,.0001381,97.2833,129.5973,93.2518,266.8882,0,U,68112,999,1700,.52372E-3,.16868E-3,0
STARLINK-36937,2026-044N,2026-06-18T15:13:57.046656,15.33451015,.0001609,97.2837,129.9271,89.8861,270.2566,0,U,68113,999,1705,.59516E-3,.19192E-3,0
STARLINK-36229,2026-044P,2026-06-17T20:30:14.596704,15.33458645,.00017768,97.2837,129.1522,97.1714,262.9731,0,U,68114,999,1693,.53462749E-3,.17232E-3,0
STARLINK-36392,2026-044Q,2026-06-18T15:10:01.539264,15.33449159,.0001689,97.2837,129.9289,97.6595,262.4840,0,U,68115,999,1705,.38393E-3,.12342E-3,0
STARLINK-36805,2026-044R,2026-06-18T19:48:00.883008,15.33448952,.0001877,97.2829,130.1270,93.7126,266.4332,0,U,68116,999,1708,.42979E-3,.13828E-3,0
STARLINK-36844,2026-044S,2026-06-17T20:14:35.192832,15.33452456,.00021625,97.2835,129.1662,100.9817,259.1669,0,U,68117,999,1693,.59993941E-3,.19348E-3,0
STARLINK-36789,2026-044T,2026-06-18T14:58:16.295808,15.33432893,.0001591,97.2836,129.9415,101.2580,258.8841,0,U,68118,999,1705,.21082E-4,.605E-5,0
STARLINK-36850,2026-044U,2026-06-18T08:38:29.524416,15.33458673,.000136,97.2849,129.6877,46.3885,313.7470,0,U,68119,999,1701,.55323E-3,.17835E-3,0
STARLINK-36868,2026-044V,2026-06-18T14:50:27.155040,15.33449761,.0002383,97.2833,129.9495,94.3891,265.7624,0,U,68120,999,1705,.44034E-3,.1417E-3,0
STARLINK-36855,2026-044W,2026-06-18T19:28:26.491008,15.33445015,.0001927,97.2834,130.1468,96.8067,263.3395,0,U,68121,999,1708,.70217E-3,.22663E-3,0
STARLINK-36366,2026-044X,2026-06-18T20:58:29.540928,15.33452476,.0001964,97.2836,130.2140,92.9151,267.2316,0,U,68122,999,1709,.55148E-3,.17776E-3,0
STARLINK-36922,2026-044Y,2026-06-18T19:16:41.441088,15.33452509,.0001851,97.2874,130.1577,104.3936,255.7512,0,U,68123,999,1708,.6333E-3,.20431E-3,0
STARLINK-36938,2026-044Z,2026-06-18T19:12:09.953280,15.33451834,.0002297,97.2839,133.0571,97.7786,262.3718,0,U,68124,999,1727,.47235E-3,.15209E-3,0
STARLINK-36839,2026-044AA,2026-06-18T19:20:36.616704,15.33454041,.0002432,97.2829,130.1551,81.3120,278.8398,0,U,68125,999,1708,.55198E-3,.17793E-3,0
ECHOSTAR 25,2026-045A,2026-06-18T14:06:38.218176,1.00268393,.0001833,0.0193,12.6365,74.5333,281.3215,0,U,68126,999,100,0,0,0
HULIANWANG DIGUI-155,2026-047A,2026-06-18T15:47:00.153024,13.29332343,.0000576,50.0044,51.1113,101.8306,258.2630,0,U,68129,999,1326,.10234E-3,-.77E-6,0
HULIANWANG DIGUI-156,2026-047B,2026-06-18T17:23:12.871392,13.29332524,.0000565,50.0045,50.7997,101.9451,258.1485,0,U,68130,999,1326,.10149E-3,-.77E-6,0
HULIANWANG DIGUI-157,2026-047C,2026-06-18T17:11:13.670016,13.29331664,.0000572,50.0015,50.7330,101.8032,258.2905,0,U,68131,999,1327,.10048E-3,-.77E-6,0
HULIANWANG DIGUI-158,2026-047D,2026-06-18T16:59:10.891680,13.29332493,.0000651,50.0064,50.7289,104.0268,256.0676,0,U,68132,999,1326,.98769E-4,-.78E-6,0
HULIANWANG DIGUI-159,2026-047E,2026-06-18T16:47:08.320704,13.29332783,.0000783,50.0030,50.6593,96.3550,263.7411,0,U,68133,999,1327,.96836E-4,-.79E-6,0
HULIANWANG DIGUI-160,2026-047F,2026-06-18T16:23:02.676768,13.29333920,.0000823,50.0089,50.6217,85.9945,274.1021,0,U,68134,999,1326,.9457E-4,-.8E-6,0
HULIANWANG DIGUI-161,2026-047G,2026-06-18T16:35:06.612000,13.29333012,.0000608,50.0108,50.6819,96.5446,263.5495,0,U,68135,999,1327,.91915E-4,-.81E-6,0
HULIANWANG DIGUI-162,2026-047H,2026-06-18T16:11:12.119712,13.29329309,.000054,50.0078,50.5713,102.1796,257.9136,0,U,68136,999,1326,.88442E-4,-.83E-6,0
HULIANWANG DIGUI-163,2026-047J,2026-06-18T17:47:18.238848,13.29332575,.0000549,50.0081,50.2602,107.4593,252.6340,0,U,68137,999,1328,.88673E-4,-.83E-6,0
SHIYAN-30 03,2026-048A,2026-06-18T13:34:24.372768,14.91799971,.00048936,34.9998,259.6302,350.7735,9.2880,0,U,68139,999,1457,.14530567E-3,.1466E-4,0
SHIYAN-30 04,2026-048B,2026-06-18T13:35:41.550432,14.91827190,.00031426,34.9914,259.5824,2.0738,357.9979,0,U,68140,999,1457,.13932098E-3,.1406E-4,0
STARLINK-36604,2026-049A,2026-06-18T12:04:38.004096,15.33448564,.0000826,97.2847,190.7617,103.8169,256.3166,0,U,68142,999,1509,.50507E-3,.16267E-3,0
STARLINK-36995,2026-049B,2026-06-18T19:30:58.370112,15.33436758,.0001891,97.2842,191.1035,98.4284,261.7173,0,U,68143,999,1514,.1856E-3,.592E-4,0
